     2.100          NAVIGATION                              RINEX VERSION / TYPE
fic2rin                                 11/26/2015 00:10:32 PGM / RUN BY / DATE
                                                            END OF HEADER
22 15 11 25 18  0  0.0  .413828529418D-03  .363797880709D-11  .000000000000D+00
     .270000000000D+02 -.442187500000D+02  .581809949005D-08  .177690701298D+01
    -.235997140408D-05  .800371100195D-02  .694207847118D-05  .515366425896D+04
     .324000000000D+06 -.173225998878D-06  .211331628831D+01 -.147148966789D-06
     .922511822252D+00  .227968750000D+03 -.204916578862D+01 -.861357307561D-08
    -.547165648788D-09  .100000000000D+01  .187200000000D+04  .000000000000D+00
     .240000000000D+01  .000000000000D+00 -.176951289177D-07  .270000000000D+02
     .316806000000D+06  .400000000000D+01
23 15 11 25 18  0  0.0 -.146375503391D-03 -.204636307899D-11  .000000000000D+00
     .590000000000D+02  .995000000000D+02  .448768693017D-08 -.514707793931D+00
     .508129596710D-05  .103943857830D-01  .129193067551D-04  .515377926064D+04
     .324000000000D+06  .109896063805D-06 -.309627866222D+01  .132247805595D-06
     .947638781759D+00  .122843750000D+03 -.262215480663D+01 -.806283584948D-08
    -.284297556420D-09  .100000000000D+01  .187200000000D+04  .000000000000D+00
     .240000000000D+01  .000000000000D+00 -.200234353542D-07  .590000000000D+02
     .316806000000D+06  .400000000000D+01
24 15 11 25 18  0  0.0 -.843778252602D-05 -.454747350886D-12  .000000000000D+00
     .101000000000D+03  .102312500000D+03  .483627287875D-08 -.113652493443D+01
     .535324215889D-05  .377023976762D-02  .241957604885D-05  .515364918518D+04
     .324000000000D+06  .596046447754D-07 -.207002231324D+01 -.391155481339D-07
     .951464294981D+00  .329625000000D+03  .299099448590D+00 -.851964059151D-08
     .237509893240D-09  .100000000000D+01  .187200000000D+04  .000000000000D+00
     .340000000000D+01  .000000000000D+00  .279396772385D-08  .101000000000D+03
     .316806000000D+06  .400000000000D+01
25 15 11 25 18  0  0.0 -.729989260435D-04 -.591171556152D-11  .000000000000D+00
     .470000000000D+02 -.119031250000D+03  .410195657724D-08  .310908849226D+01
    -.615604221821D-05  .474062853027D-02  .362098217010D-05  .515359806061D+04
     .324000000000D+06 -.204890966415D-07 -.100186659192D+01 -.633299350739D-07
     .978470115288D+00  .318406250000D+03  .708641790781D+00 -.808605110220D-08
    -.313227332890D-09  .100000000000D+01  .187200000000D+04  .000000000000D+00
     .240000000000D+01  .000000000000D+00  .558793544769D-08  .470000000000D+02
     .316806000000D+06  .400000000000D+01
26 15 11 25 18  0  0.0 -.137620139867D-03 -.161435309565D-10  .000000000000D+00
     .100000000000D+03 -.124531250000D+03  .466698011274D-08  .284190686305D+01
    -.645592808723D-05  .427207094617D-03  .330246984959D-05  .515367020798D+04
     .324000000000D+06 -.279396772385D-07 -.100762893993D+01  .298023223877D-07
     .960521260309D+00  .314906250000D+03 -.345791918410D+00 -.842785105383D-08
    -.349300264044D-09  .100000000000D+01  .187200000000D+04  .000000000000D+00
     .240000000000D+01  .000000000000D+00  .745058059692D-08  .100000000000D+03
     .316806000000D+06  .400000000000D+01
27 15 11 25 18  0  0.0  .389451161027D-04  .318323145621D-11  .000000000000D+00
     .410000000000D+02 -.691875000000D+02  .390516266570D-08  .685417648819D+00
    -.361911952496D-05  .279789918568D-02  .136215239763D-04  .515371908760D+04
     .324000000000D+06  .279396772385D-07  .404491538525D-01  .856816768646D-07
     .969763400344D+00  .122093750000D+03  .270902346296D+00 -.766960518413D-08
     .351086052715D-09  .100000000000D+01  .187200000000D+04  .000000000000D+00
     .240000000000D+01  .000000000000D+00  .186264514923D-08  .410000000000D+02
     .316806000000D+06  .400000000000D+01
28 15 11 25 18  0  0.0  .483936630189D-03  .272848410532D-11  .000000000000D+00
     .460000000000D+02 -.144375000000D+03  .388551899032D-08  .148709594873D+01
    -.786036252975D-05  .199905518675D-01  .397674739361D-05  .515370563507D+04
     .324000000000D+06 -.391155481339D-07 -.929210404177D+00 -.458210706711D-06
     .989336169000D+00  .322375000000D+03 -.164647547237D+01 -.812390982202D-08
    -.386801826134D-09  .100000000000D+01  .187200000000D+04  .000000000000D+00
     .240000000000D+01  .000000000000D+00 -.111758708954D-07  .460000000000D+02
     .316806000000D+06  .400000000000D+01
29 15 11 25 18  0  0.0  .645856373012D-03  .147792889038D-11  .000000000000D+00
     .800000000000D+01 -.543750000000D+02  .379658671450D-08 -.303351866470D+01
    -.283494591713D-05  .880312290974D-03  .127442181110D-04  .515366213799D+04
     .324000000000D+06  .745058059692D-08  .987925768217D-01  .186264514923D-08
     .975730597839D+00  .139437500000D+03 -.554442370819D+00 -.757210112269D-08
     .380015829185D-09  .100000000000D+01  .187200000000D+04  .000000000000D+00
     .240000000000D+01  .000000000000D+00 -.102445483208D-07  .800000000000D+01
     .316806000000D+06  .400000000000D+01
30 15 11 25 18  0  0.0  .621262006462D-04  .545696821064D-11  .000000000000D+00
     .490000000000D+02  .106031250000D+03  .492413368136D-08 -.219152206603D+01
     .540725886822D-05  .167452590540D-02  .140629708767D-05  .515367056465D+04
     .324000000000D+06 -.484287738800D-07 -.197922462322D+01 -.409781932831D-07
     .954043217672D+00  .348875000000D+03 -.313259323214D+01 -.862714506951D-08
     .283583240952D-09  .100000000000D+01  .187200000000D+04  .000000000000D+00
     .240000000000D+01  .000000000000D+00  .325962901115D-08  .490000000000D+02
     .316806000000D+06  .400000000000D+01
31 15 11 25 18  0  0.0  .293831340969D-03 -.159161572810D-11  .000000000000D+00
     .980000000000D+02  .100468750000D+03  .451590239118D-08 -.211798062559D+01
     .526569783688D-05  .828200264368D-02  .188872218132D-05  .515364114571D+04
     .324000000000D+06 -.745058059692D-07 -.201745323713D+01  .111758708954D-07
     .973140343384D+00  .354468750000D+03 -.495781171322D+00 -.837820612877D-08
     .298226708054D-09  .100000000000D+01  .187200000000D+04  .000000000000D+00
     .240000000000D+01  .000000000000D+00 -.135041773319D-07  .980000000000D+02
     .316806000000D+06  .400000000000D+01
32 15 11 25 18  0  0.0  .281995162368D-04  .119371179608D-10  .000000000000D+00
     .610000000000D+02 -.414687500000D+02  .520093092536D-08 -.171585627578D+01
    -.220537185669D-05  .113655028399D-01  .807456672192D-05  .515364818764D+04
     .324000000000D+06  .165775418282D-06  .221857410577D+01 -.154599547386D-06
     .946609656926D+00  .215062500000D+03  .182588230356D+00 -.830784605514D-08
    -.513235664040D-09  .100000000000D+01  .187200000000D+04  .000000000000D+00
     .240000000000D+01  .000000000000D+00 -.325962901115D-08  .610000000000D+02
     .316806000000D+06  .400000000000D+01
16 15 11 25 17 59 44.0 -.631753355265D-04  .352429196937D-11  .000000000000D+00
     .300000000000D+01 -.138406250000D+03  .392052044827D-08  .169613190199D+01
    -.709854066372D-05  .821184471715D-02  .475347042084D-05  .515366434860D+04
     .323984000000D+06 -.651925802231D-07 -.934370985216D+00  .143423676491D-06
     .990672165769D+00  .306093750000D+03  .313659692294D+00 -.806855037322D-08
    -.490020411317D-09  .100000000000D+01  .187200000000D+04  .000000000000D+00
     .240000000000D+01  .000000000000D+00 -.102445483208D-07  .300000000000D+01
     .316956000000D+06  .400000000000D+01
14 15 11 25 17 59 44.0  .194115564227D-04 -.238742359215D-11  .000000000000D+00
     .000000000000D+00  .103437500000D+03  .415981613018D-08  .660573253402D+00
     .541657209396D-05  .835674721748D-02  .118967145681D-04  .515369595146D+04
     .323984000000D+06 -.106170773506D-06 -.302118727763D+01  .279396772385D-07
     .965716625151D+00  .155968750000D+03 -.194886401723D+01 -.791354391658D-08
    -.213937482783D-09  .100000000000D+01  .187200000000D+04  .000000000000D+00
     .240000000000D+01  .000000000000D+00 -.931322574615D-08  .000000000000D+00
     .319536000000D+06  .400000000000D+01
 8 15 11 25 17 59 44.0 -.138389877975D-04 -.136424205266D-11  .000000000000D+00
     .100000000000D+01 -.809375000000D+02  .405731186047D-08  .209646795296D+01
    -.417232513428D-05  .155084417202D-02  .137090682983D-04  .515361796188D+04
     .323984000000D+06  .204890966415D-07  .392129163925D-01  .130385160446D-07
     .961677855046D+00  .113906250000D+03 -.164100089206D+01 -.769889211833D-08
     .358229207399D-09  .100000000000D+01  .187200000000D+04  .000000000000D+00
     .240000000000D+01  .000000000000D+00  .465661287308D-08  .100000000000D+01
     .322026000000D+06  .400000000000D+01
26 15 11 25 17 59 44.0 -.137618742883D-03 -.161435309565D-10  .000000000000D+00
     .200000000000D+01 -.124531250000D+03  .466698011274D-08  .283956852162D+01
    -.645592808723D-05  .427209306508D-03  .330246984959D-05  .515367021561D+04
     .323984000000D+06 -.279396772385D-07 -.100762877754D+01  .298023223877D-07
     .960521264698D+00  .314906250000D+03 -.345787402382D+00 -.842785105383D-08
    -.349300264044D-09  .100000000000D+01  .187200000000D+04  .000000000000D+00
     .240000000000D+01  .000000000000D+00  .745058059692D-08  .200000000000D+01
     .323226000000D+06  .400000000000D+01
17 15 11 25 17 59 44.0 -.194917898625D-03 -.102318153949D-11  .000000000000D+00
     .800000000000D+01 -.657187500000D+02  .389301930274D-08  .720353055653D+00
    -.345148146152D-05  .106846262934D-01  .131875276566D-04  .515360618210D+04
     .323984000000D+06 -.139698386192D-06  .892599275886D-01  .521540641785D-07
     .974826455949D+00  .133906250000D+03 -.199261260141D+01 -.777068082290D-08
     .315013121561D-09  .100000000000D+01  .187200000000D+04  .000000000000D+00
     .240000000000D+01  .000000000000D+00 -.107102096081D-07  .800000000000D+01
     .323436000000D+06  .400000000000D+01
